STARLINK-31903          
1 59845U 24097L   26068.53276043  .00000275  00000+0  19519-4 0  9997
2 59845  43.0009 268.2455 0000847 264.0258  96.0497 15.27567682101979
FLOCK 4G-6              
1 62660U 25009BD  26068.71061311  .00012261  00000+0  45910-3 0  9991
2 62660  97.3980 150.7943 0002380 348.2637  11.8546 15.27432125121307
